HELIOS 2A               
1 28492U 04049A   22300.46188195  .00001206  00000+0  12044-3 0  9993
2 28492  98.2468 249.7439 0014734  14.0584 346.1023 14.93486384954820
CFESAT                  
1 30777U 07006F   22299.96709396  .00379555  00000+0  12490-2 0  9991
2 30777  35.4088 138.3010 0010187 315.4661  44.5262 15.88483600869721
SPIRALE A               
1 33751U 09008C   22299.54047352  .00000151  00000+0  50224-3 0  9992
2 33751   2.0013 129.3933 5452337 134.8986 285.5148  4.58878768200832
SPIRALE B               
1 33752U 09008D   22299.72038585  .00001939  00000+0  63814-3 0  9995
2 33752   2.2278  45.4903 6844493 291.8713  11.6395  2.83290787128841
SAPPHIRE                
1 39088U 13009C   22300.12291531  .00000078  00000+0  43014-4 0  9992
2 39088  98.4207 132.5683 0010331 243.0329 116.9801 14.34335201506013
